SAR-LUPE 2              
1 31797U 07030A   26183.24785949  .00039605  00000+0  65140-3 0  9996
2 31797  98.1065 289.5741 0002854 202.9453 157.1670 15.52269492 59273
SAPPHIRE                
1 39088U 13009C   26183.28998616  .00000117  00000+0  55862-4 0  9998
2 39088  98.4267   2.3875 0010770 198.1749 161.9053 14.35244756698745
PRAETORIAN SDA_602      
1 65565U 25203A   26183.20442384  .00000095  00000+0  74947-4 0  9994
2 65565  81.3032 356.8611 0006623 148.2823 211.8734 13.83886936 40770
PRAETORIAN SDA_603      
1 65566U 25203B   26183.23339268  .00000292  00000+0  25233-3 0  9996
2 65566  81.3039 356.7566 0010192 147.7120 212.4662 13.83907342 40789
PRAETORIAN SDA_604      
1 65567U 25203C   26183.19008561  .00000059  00000+0  43482-4 0  9999
2 65567  81.3055 357.2318 0006079 151.8663 208.2823 13.83049097 40759
PRAETORIAN SDA_605      
1 65568U 25203D   26183.22355700  .00000021  00000+0  82082-5 0  9993
2 65568  81.3021 356.8494 0008875 143.6146 216.5616 13.83435075 40773
PRAETORIAN SDA_606      
1 65569U 25203E   26183.20869315  .00000062  00000+0  45792-4 0  9995
2 65569  81.3057 357.0962 0006738 146.6313 213.5269 13.83199216 40765
PRAETORIAN SDA_607      
1 65570U 25203F   26182.98808141  .00000185  00000+0  15499-3 0  9997
2 65570  81.3044 356.9351 0009371 148.0757 212.0970 13.84286069 40753
PRAETORIAN SDA_608      
1 65571U 25203G   26183.18738438  .00000080  00000+0  61498-4 0  9997
2 65571  81.3009 356.9188 0006583 151.0244 209.1279 13.83818422 40763
PRAETORIAN SDA_609      
1 65572U 25203H   26183.18804458  .00000178  00000+0  14913-3 0  9991
2 65572  81.3050 356.8986 0007509 145.8753 214.2888 13.84210749 40773
PRAETORIAN SDA_610      
1 65573U 25203J   26183.23995709  .00000072  00000+0  54508-4 0  9996
2 65573  81.3010 356.8294 0007363 150.5190 209.6383 13.83769164 40775
PRAETORIAN SDA_611      
1 65574U 25203K   26183.24574485  .00000087  00000+0  68081-4 0  9999
2 65574  81.3014 357.0000 0006170 154.0493 206.0974 13.83309854 40760
PRAETORIAN SDA_612      
1 65575U 25203L   26183.21656562  .00000290  00000+0  24556-3 0  9998
2 65575  81.3026 356.5768 0009959 146.6307 213.5479 13.85040722 40792
PRAETORIAN SDA_613      
1 65576U 25203M   26183.18605107  .00000066  00000+0  50013-4 0  9993
2 65576  81.3001 357.0641 0006341 145.1596 214.9976 13.82766592 40758
PRAETORIAN SDA_614      
1 65577U 25203N   26183.20858140  .00000039  00000+0  23925-4 0  9996
2 65577  81.3016 356.6656 0007815 144.3377 215.8303 13.84778346 40791
PRAETORIAN SDA_615      
1 65578U 25203P   26183.18916850  .00000212  00000+0  17903-3 0  9998
2 65578  81.3022 356.6567 0009656 145.7501 214.4281 13.84438192 40780
PRAETORIAN SDA_616      
1 65579U 25203Q   26183.17307633  .00000200  00000+0  17166-3 0  9999
2 65579  81.3065 357.2228 0006066 152.5185 207.6294 13.83269444 40751
PRAETORIAN SDA_617      
1 65580U 25203R   26183.19595907  .00000063  00000+0  46203-4 0  9998
2 65580  81.3039 357.0314 0008068 144.8926 215.2764 13.83151252 40764
PRAETORIAN SDA_618      
1 65581U 25203S   26183.22679735  .00000191  00000+0  16094-3 0  9991
2 65581  81.3022 356.5497 0010443 149.2334 210.9437 13.84225157 40794
PRAETORIAN SDA_619      
1 65582U 25203T   26183.19797561  .00000147  00000+0  12162-3 0  9999
2 65582  81.3049 356.8935 0008867 146.0747 214.0978 13.83807387 41408
PRAETORIAN SDA_620      
1 65583U 25203U   26183.22799584  .00000198  00000+0  16876-3 0  9993
2 65583  81.3028 356.8887 0008364 142.0106 218.1642 13.83619885 40775
PRAETORIAN SDA_621      
1 65584U 25203V   26183.19979388  .00000062  00000+0  44778-4 0  9995
2 65584  81.3022 356.8271 0008127 139.9069 220.2689 13.83802740 40776
PRAETORIAN SDA_601      
1 65585U 25203W   26183.17729579  .00000277  00000+0  24199-3 0  9991
2 65585  81.3041 357.1610 0006084 155.3092 204.8357 13.83169233 40758
VICTUS HAZE PUMA        
1 69646U 26142A   26183.28349057  .00000355  00000+0  19152-4 0  9998
2 69646  97.4463  80.7369 0022009 310.5126  49.4192 15.20934475  1965
